{
    "links": {
        "self": "http://www.neowsapp.com/rest/v1/neo/3698494?api_key=iIulBulltgU6a56xZRHN4H3l9WmuAYTsLGpBGhQ2"
    },
    "id": "3698494",
    "neo_reference_id": "3698494",
    "name": "(2014 HS196)",
    "designation": "2014 HS196",
    "nasa_jpl_url": "http://ssd.jpl.nasa.gov/sbdb.cgi?sstr=3698494",
    "absolute_magnitude_h": 27.5,
    "estimated_diameter": {
        "kilometers": {
            "estimated_diameter_min": 0.008405334,
            "estimated_diameter_max": 0.0187948982
        },
        "meters": {
            "estimated_diameter_min": 8.4053340207,
            "estimated_diameter_max": 18.7948982439
        },
        "miles": {
            "estimated_diameter_min": 0.0052228308,
            "estimated_diameter_max": 0.0116786047
        },
        "feet": {
            "estimated_diameter_min": 27.5765560686,
            "estimated_diameter_max": 61.6630539546
        }
    },
    "is_potentially_hazardous_asteroid": false,
    "close_approach_data": [
        {
            "close_approach_date": "2014-05-10",
            "close_approach_date_full": "2014-May-10 00:13",
            "epoch_date_close_approach": 1399680780000,
            "relative_velocity": {
                "kilometers_per_second": "11.7671851176",
                "kilometers_per_hour": "42361.8664234684",
                "miles_per_hour": "26322.0163896268"
            },
            "miss_distance": {
                "astronomical": "0.02024363",
                "lunar": "7.87477207",
                "kilometers": "3028403.9290681",
                "miles": "1881762.94301578"
            },
            "orbiting_body": "Earth"
        }
    ],
    "orbital_data": {
        "orbit_id": "3",
        "orbit_determination_date": "2017-04-06 08:41:03",
        "first_observation_date": "2014-04-23",
        "last_observation_date": "2014-04-25",
        "data_arc_in_days": 2,
        "observations_used": 24,
        "orbit_uncertainty": "9",
        "minimum_orbit_intersection": ".0114202",
        "jupiter_tisserand_invariant": "3.996",
        "epoch_osculation": "2456771.5",
        "eccentricity": ".4921558397312042",
        "semi_major_axis": "1.740935028857105",
        "inclination": "1.088563405727009",
        "ascending_node_longitude": "190.9280146052048",
        "orbital_period": "839.01992084252",
        "perihelion_distance": ".8841236878124682",
        "perihelion_argument": "91.63434503139084",
        "aphelion_distance": "2.597746369901742",
        "perihelion_time": "2456827.507834615962",
        "mean_anomaly": "335.968603413493",
        "mean_motion": ".4290720530669858",
        "equinox": "J2000",
        "orbit_class": {
            "orbit_class_type": "APO",
            "orbit_class_description": "Near-Earth asteroid orbits which cross the Earth’s orbit similar to that of 1862 Apollo",
            "orbit_class_range": "a (semi-major axis) > 1.0 AU; q (perihelion) < 1.017 AU"
        }
    },
    "is_sentry_object": false
}